OBJECT_NAME,OBJECT_ID,EPOCH,MEAN_MOTION,ECCENTRICITY,INCLINATION,RA_OF_ASC_NODE,ARG_OF_PERICENTER,MEAN_ANOMALY,EPHEMERIS_TYPE,CLASSIFICATION_TYPE,NORAD_CAT_ID,ELEMENT_SET_NO,REV_AT_EPOCH,BSTAR,MEAN_MOTION_DOT,MEAN_MOTION_DDOT
IRIDIUM 113,2017-039A,2026-05-11T19:42:31.196160,14.34217588,.0002235,86.3973,337.3867,92.7478,267.3974,0,U,42803,999,46597,.21968E-4,.81E-6,0
NORSAT 2,2017-042D,2026-05-11T17:24:12.484800,15.21180858,.0010051,97.4027,305.7704,172.2935,187.8457,0,U,42828,999,48219,.29446E-3,.6504E-4,0
TECHNOSAT,2017-042E,2026-05-11T21:02:37.743072,15.04726703,.0016933,97.4236,290.9322,214.0340,145.9802,0,U,42829,999,48124,.10192E-3,.138E-4,0
FLYING LAPTOP,2017-042G,2026-05-11T20:29:40.842816,15.00904513,.0017675,97.4527,288.8275,246.4936,113.4431,0,U,42831,999,48100,.21058E-3,.2632E-4,0
WNISAT 1R,2017-042L,2026-05-11T17:01:49.076256,15.01590309,.0010501,97.4791,289.1475,290.0046,70.0048,0,U,42835,999,48103,.14343E-3,.1803E-4,0
LEMUR-2-GREENBERG,2017-042N,2026-05-11T09:55:45.687072,15.30174151,.00102335,97.3817,312.2458,131.7555,228.4562,0,U,42837,999,48276,.35647942E-3,.10351E-3,0
LEMUR-2-FURIAUS,2017-042R,2026-05-11T10:42:17.584704,15.29022005,.00076497,97.3770,310.3181,184.7235,175.3935,0,U,42840,999,48259,.40551126E-3,.11368E-3,0
CORVUS BC2,2017-042X,2026-05-11T17:19:13.131264,15.06060833,.001193,97.4039,294.5038,232.5956,127.4186,0,U,42846,999,48157,.16328E-3,.2327E-4,0
CORVUS BC1,2017-042Y,2026-05-11T17:17:25.334304,15.06232832,.0011229,97.4072,295.2927,206.2576,153.8084,0,U,42847,999,48160,.15896E-3,.2274E-4,0
VRSS-2,2017-060A,2026-05-11T20:12:21.451680,14.81131664,.0016011,97.6545,171.2016,214.8598,145.1568,0,U,42954,999,46307,-.10155E-4,-.129E-5,0
MOHAMMED VI-A,2017-070A,2026-05-11T20:00:17.532000,14.77090923,.0001344,97.9561,204.6619,103.9612,256.1748,0,U,43005,999,45861,.99663E-4,.653E-5,0
FENGYUN 3D,2017-072A,2026-05-11T20:27:56.387808,14.19730704,.0002113,99.0109,105.6233,123.7388,236.3989,0,U,43010,999,43983,-.67984E-4,-.19E-5,0
NOAA 20 (JPSS-1),2017-073A,2026-05-11T20:12:10.884096,14.19550826,.000176,98.7758,71.6305,51.9181,308.2154,0,U,43013,999,43931,.37816E-4,.36E-6,0
MAKERSAT 0,2017-073D,2026-05-11T15:39:01.255104,15.30531034,.0111941,97.4679,13.9210,43.8144,317.1910,0,U,43016,999,46087,.44657E-3,.15937E-3,0
RADFXSAT (FOX-1B),2017-073E,2026-05-11T08:31:39.317952,15.12035982,.01542257,97.4764,359.3364,95.7355,266.1483,0,U,43017,999,45982,.26828215E-3,.6092E-4,0
JILIN-1 04,2017-074A,2026-05-11T19:26:05.320320,15.41517563,.0003118,97.4817,240.4886,344.5143,15.6008,0,U,43022,999,46866,.19649E-3,.8155E-4,0
JILIN-1 05,2017-074B,2026-05-11T20:13:16.479840,15.33308823,.0005209,97.4826,237.5296,13.9426,346.1958,0,U,43023,999,46843,.16596E-3,.5262E-4,0
JILIN-1 06,2017-074C,2026-05-11T19:29:06.813024,15.33282611,.0007216,97.4756,234.5487,21.4319,338.7224,0,U,43024,999,46826,.11509E-3,.3622E-4,0
IRIDIUM 116,2017-083C,2026-05-11T07:22:43.717152,14.34221271,.00021141,86.3966,337.4270,78.6676,281.4757,0,U,43072,999,43888,.50824415E-4,.162E-5,0
IRIDIUM 130,2017-083D,2026-05-11T20:00:47.212128,14.34217477,.0002171,86.3969,337.4783,81.6651,278.4791,0,U,43073,999,43890,-.66011E-5,.1E-7,0
LKW-2,2017-084A,2026-05-11T20:00:56.403360,15.25852017,.0002886,97.1226,173.3372,51.3509,308.7988,0,U,43080,999,46614,.14758E-3,.3709E-4,0
SUPERVIEW-1 03,2018-002A,2026-05-11T19:28:12.247104,15.38135403,.004657,97.3128,216.7389,312.9429,46.7913,0,U,43099,999,46277,.21925E-3,.8455E-4,0
CARTOSAT-2F,2018-004A,2026-05-11T12:31:07.313952,15.19199755,.00020115,97.4236,191.5176,57.4068,302.7360,0,U,43111,999,46176,.12069865E-3,.2472E-4,0
LKW-3,2018-006A,2026-05-11T19:20:21.249600,15.34536402,.0004268,97.6578,290.9892,81.5560,278.6166,0,U,43146,999,46313,.25279E-3,.8376E-4,0
ASNARO-2,2018-007A,2026-05-11T18:33:11.868192,15.22398081,.0001834,97.3992,139.2662,88.8526,271.2920,0,U,43152,999,46187,.24616E-3,.5617E-4,0
JILIN-1 07,2018-008E,2026-05-11T20:00:21.586752,15.34112929,.0008451,97.1800,152.7452,175.2816,184.8509,0,U,43159,999,45942,.16501E-3,.5376E-4,0
JILIN-1 08,2018-008F,2026-05-11T19:28:58.216224,15.33228156,.0005798,97.1829,152.0754,185.3139,174.8043,0,U,43160,999,45937,.14674E-3,.4637E-4,0
LEMUR-2-KADI,2018-014E,2026-05-11T19:09:37.071936,15.84313562,.0005329,97.4494,60.8967,104.0747,256.1115,0,U,43184,999,45530,.10565E-2,.244842E-2,0
