IRIDIUM 113             
1 42803U 17039A   26131.82119440  .00000081  00000+0  21968-4 0  9997
2 42803  86.3973 337.3867 0002235  92.7478 267.3974 14.34217588465973
NORSAT 2                
1 42828U 17042D   26131.72514450  .00006504  00000+0  29446-3 0  9991
2 42828  97.4027 305.7704 0010051 172.2935 187.8457 15.21180858482190
TECHNOSAT               
1 42829U 17042E   26131.87682573  .00001380  00000+0  10192-3 0  9995
2 42829  97.4236 290.9322 0016933 214.0340 145.9802 15.04726703481244
FLYING LAPTOP           
1 42831U 17042G   26131.85394494  .00002632  00000+0  21058-3 0  9992
2 42831  97.4527 288.8275 0017675 246.4936 113.4431 15.00904513481002
WNISAT 1R               
1 42835U 17042L   26131.70959579  .00001803  00000+0  14343-3 0  9999
2 42835  97.4791 289.1475 0010501 290.0046  70.0048 15.01590309481033
LEMUR-2-GREENBERG       
1 42837U 17042N   26131.41372323  .00010351  00000+0  35648-3 0  9994
2 42837  97.3817 312.2458 0010233 131.7555 228.4562 15.30174151482766
LEMUR-2-FURIAUS         
1 42840U 17042R   26131.44603686  .00011368  00000+0  40551-3 0  9998
2 42840  97.3770 310.3181 0007649 184.7235 175.3935 15.29022005482593
CORVUS BC2              
1 42846U 17042X   26131.72167976  .00002327  00000+0  16328-3 0  9992
2 42846  97.4039 294.5038 0011930 232.5956 127.4186 15.06060833481571
CORVUS BC1              
1 42847U 17042Y   26131.72043211  .00002274  00000+0  15896-3 0  9998
2 42847  97.4072 295.2927 0011229 206.2576 153.8084 15.06232832481605
VRSS-2                  
1 42954U 17060A   26131.84191495 -.00000129  00000+0 -10155-4 0  9991
2 42954  97.6545 171.2016 0016011 214.8598 145.1568 14.81131664463071
MOHAMMED VI-A           
1 43005U 17070A   26131.83353625  .00000653  00000+0  99663-4 0  9995
2 43005  97.9561 204.6619 0001344 103.9612 256.1748 14.77090923458612
FENGYUN 3D              
1 43010U 17072A   26131.85273597 -.00000190  00000+0 -67984-4 0  9993
2 43010  99.0109 105.6233 0002113 123.7388 236.3989 14.19730704439830
NOAA 20 (JPSS-1)        
1 43013U 17073A   26131.84179264  .00000036  00000+0  37816-4 0  9990
2 43013  98.7758  71.6305 0001760  51.9181 308.2154 14.19550826439312
MAKERSAT 0              
1 43016U 17073D   26131.65209786  .00015937  00000+0  44657-3 0  9991
2 43016  97.4679  13.9210 0111941  43.8144 317.1910 15.30531034460877
RADFXSAT (FOX-1B)       
1 43017U 17073E   26131.35531618  .00006092  00000+0  26828-3 0  9993
2 43017  97.4764 359.3364 0154225  95.7355 266.1483 15.12035982459824
JILIN-1 04              
1 43022U 17074A   26131.80978380  .00008155  00000+0  19649-3 0  9996
2 43022  97.4817 240.4886 0003118 344.5143  15.6008 15.41517563468666
JILIN-1 05              
1 43023U 17074B   26131.84255185  .00005262  00000+0  16596-3 0  9996
2 43023  97.4826 237.5296 0005209  13.9426 346.1958 15.33308823468432
JILIN-1 06              
1 43024U 17074C   26131.81188441  .00003622  00000+0  11509-3 0  9991
2 43024  97.4756 234.5487 0007216  21.4319 338.7224 15.33282611468269
IRIDIUM 116             
1 43072U 17083C   26131.30745043  .00000162  00000+0  50824-4 0  9995
2 43072  86.3966 337.4270 0002114  78.6676 281.4757 14.34221271438882
IRIDIUM 130             
1 43073U 17083D   26131.83387977  .00000001  00000+0 -66011-5 0  9991
2 43073  86.3969 337.4783 0002171  81.6651 278.4791 14.34217477438905
LKW-2                   
1 43080U 17084A   26131.83398615  .00003709  00000+0  14758-3 0  9997
2 43080  97.1226 173.3372 0002886  51.3509 308.7988 15.25852017466147
SUPERVIEW-1 03          
1 43099U 18002A   26131.81125286  .00008455  00000+0  21925-3 0  9995
2 43099  97.3128 216.7389 0046570 312.9429  46.7913 15.38135403462774
CARTOSAT-2F             
1 43111U 18004A   26131.52161243  .00002472  00000+0  12070-3 0  9997
2 43111  97.4236 191.5176 0002011  57.4068 302.7360 15.19199755461764
LKW-3                   
1 43146U 18006A   26131.80580150  .00008376  00000+0  25279-3 0  9994
2 43146  97.6578 290.9892 0004268  81.5560 278.6166 15.34536402463132
ASNARO-2                
1 43152U 18007A   26131.77305403  .00005617  00000+0  24616-3 0  9993
2 43152  97.3992 139.2662 0001834  88.8526 271.2920 15.22398081461876
JILIN-1 07              
1 43159U 18008E   26131.83358318  .00005376  00000+0  16501-3 0  9997
2 43159  97.1800 152.7452 0008451 175.2816 184.8509 15.34112929459429
JILIN-1 08              
1 43160U 18008F   26131.81178491  .00004637  00000+0  14674-3 0  9997
2 43160  97.1829 152.0754 0005798 185.3139 174.8043 15.33228156459376
LEMUR-2-KADI            
1 43184U 18014E   26131.79834574  .00244842  00000+0  10565-2 0  9996
2 43184  97.4494  60.8967 0005329 104.0747 256.1115 15.84313562455303
